NORAD_CAT_ID,OBJECT_NAME,OBJECT_TYPE,EPOCH,MEAN_MOTION,ECCENTRICITY,INCLINATION,RA_OF_ASC_NODE,ARG_OF_PERICENTER,MEAN_ANOMALY,BSTAR,MEAN_MOTION_DOT,MEAN_MOTION_DDOT,TLE_LINE0,TLE_LINE1,TLE_LINE2,SEMIMAJOR_AXIS,PERIOD,APOGEE,PERIGEE,DECAYED
53432.0,STARLINK-4557,PAYLOAD,2024-04-08 04:15:44,15.08842293,0.0001431,53.2197,8.6074,91.649,268.4666,4.2948e-05,3.96e-06,0.0,0 STARLINK-4557,1 53432U 22097AW  24099.17760229  .00000396  00000-0  42948-4 0  9994,2 53432  53.2197   8.6074 0001431  91.6490 268.4666 15.08842293 92550,6917.873,95.437,540.728,538.748,0.0
53432.0,STARLINK-4557,PAYLOAD,2024-04-08 10:37:17,15.08839306,0.0001426,53.2196,7.4191,93.5679,266.5476,1.6281e-05,-2.9e-07,0.0,0 STARLINK-4557,1 53432U 22097AW  24099.44256501 -.00000029  00000-0  16281-4 0  9992,2 53432  53.2196   7.4191 0001426  93.5679 266.5476 15.08839306 93077,6917.883,95.438,540.734,538.761,0.0
53432.0,STARLINK-4557,PAYLOAD,2024-04-08 23:20:22,15.08839266,0.0001357,53.2185,5.0384,91.2308,268.8839,0.00012892,1.764e-05,0.0,0 STARLINK-4557,1 53432U 22097AW  24099.97248428  .00001764  00000-0  12892-3 0  9998,2 53432  53.2185   5.0384 0001357  91.2308 268.8839 15.08839266 93152,6917.883,95.438,540.686,538.809,0.0
53432.0,STARLINK-4557,PAYLOAD,2024-04-09 10:28:04,15.0884043,0.0001376,53.2193,2.9543,84.183,275.9319,8.5628e-05,1.075e-05,0.0,0 STARLINK-4557,1 53432U 22097AW  24100.43616426  .00001075  00000-0  85628-4 0  9992,2 53432  53.2193   2.9543 0001376  84.1830 275.9319 15.08840430 92747,6917.879,95.438,540.696,538.792,0.0
53432.0,STARLINK-4557,PAYLOAD,2024-04-09 20:00:24,15.08831072,0.0001449,53.2187,1.1705,86.6956,273.4202,4.8671e-05,4.87e-06,0.0,0 STARLINK-4557,1 53432U 22097AW  24100.83361250  .00000487  00000-0  48671-4 0  9991,2 53432  53.2187   1.1705 0001449  86.6956 273.4202 15.08831072 92801,6917.908,95.438,540.775,538.77,0.0
53432.0,STARLINK-4557,PAYLOAD,2024-04-10 02:21:56,15.08838117,0.0001458,53.2183,359.9821,84.0867,276.0291,4.6903e-05,4.59e-06,0.0,0 STARLINK-4557,1 53432U 22097AW  24101.09856833  .00000459  00000-0  46903-4 0  9991,2 53432  53.2183 359.9821 0001458  84.0867 276.0291 15.08838117 92841,6917.886,95.438,540.76,538.743,0.0
53432.0,STARLINK-4557,PAYLOAD,2024-04-10 10:18:51,15.08840252,0.000123,53.2171,358.4967,93.0359,267.0774,0.00011318,1.514e-05,0.0,0 STARLINK-4557,1 53432U 22097AW  24101.42976502  .00001514  00000-0  11318-3 0  9998,2 53432  53.2171 358.4967 0001230  93.0359 267.0774 15.08840252 93375,6917.88,95.438,540.596,538.894,0.0
53432.0,STARLINK-4557,PAYLOAD,2024-04-10 21:26:34,15.08823936,0.0001359,53.217,356.4152,99.273,260.8416,0.00029381,4.389e-05,0.0,0 STARLINK-4557,1 53432U 22097AW  24101.89345310  .00004389  00000-0  29381-3 0  9998,2 53432  53.2170 356.4152 0001359  99.2730 260.8416 15.08823936 92969,6917.929,95.439,540.735,538.854,0.0
53432.0,STARLINK-4557,PAYLOAD,2024-04-10 23:01:57,15.08819132,0.0001324,53.217,356.1178,102.3613,257.7528,0.00038414,5.828e-05,0.0,0 STARLINK-4557,1 53432U 22097AW  24101.95969563  .00005828  00000-0  38414-3 0  9993,2 53432  53.2170 356.1178 0001324 102.3613 257.7528 15.08819132 93459,6917.944,95.439,540.725,538.893,0.0
53432.0,STARLINK-4557,PAYLOAD,2024-04-11 00:37:19,15.08848784,0.0001365,53.2175,355.8186,92.6868,267.428,3.216e-05,2.24e-06,0.0,0 STARLINK-4557,1 53432U 22097AW  24102.02592190  .00000224  00000-0  32160-4 0  9998,2 53432  53.2175 355.8186 0001365  92.6868 267.4280 15.08848784 92982,6917.854,95.437,540.663,538.774,0.0
53432.0,STARLINK-4557,PAYLOAD,2024-04-11 10:09:39,15.08837827,0.0001813,53.2187,354.0341,68.4267,291.6918,-2.12e-05,-6.25e-06,0.0,0 STARLINK-4557,1 53432U 22097AW  24102.42337165 -.00000625  00000-0 -21200-4 0  9991,2 53432  53.2187 354.0341 0001813  68.4267 291.6918 15.08837827 93042,6917.887,95.438,541.006,538.498,0.0
53432.0,STARLINK-4557,PAYLOAD,2024-04-11 21:17:23,15.08808476,0.0001319,53.217,351.9548,64.917,295.1959,-0.00013319,-2.405e-05,0.0,0 STARLINK-4557,1 53432U 22097AW  24102.88707765 -.00002405  00000-0 -13319-3 0  9997,2 53432  53.2170 351.9548 0001319  64.9170 295.1959 15.08808476 93114,6917.977,95.44,540.754,538.929,0.0
53432.0,STARLINK-4557,PAYLOAD,2024-04-11 22:52:46,15.08801542,3.65e-05,53.2181,351.6565,26.9047,333.1964,-0.00018544,-3.234e-05,0.0,0 STARLINK-4557,1 53432U 22097AW  24102.95332162 -.00003234  00000-0 -18544-3 0  9996,2 53432  53.2181 351.6565 0000365  26.9047 333.1964 15.08801542 93603,6917.998,95.44,540.115,539.61,0.0
53432.0,STARLINK-4557,PAYLOAD,2024-04-12 22:43:30,15.08856834,0.0001267,53.2178,347.195,87.614,272.4997,0.00013007,1.784e-05,0.0,0 STARLINK-4557,1 53432U 22097AW  24103.94687910  .00001784  00000-0  13007-3 0  9995,2 53432  53.2178 347.1950 0001267  87.6140 272.4997 15.08856834 93758,6917.829,95.436,540.57,538.817,0.0
53432.0,STARLINK-4557,PAYLOAD,2024-04-13 03:29:38,15.08871728,0.0001265,53.2173,346.3051,88.2037,271.91,0.0002757,4.106e-05,0.0,0 STARLINK-4557,1 53432U 22097AW  24104.14558599  .00004106  00000-0  27570-3 0  9999,2 53432  53.2173 346.3051 0001265  88.2037 271.9100 15.08871728 93306,6917.783,95.436,540.524,538.773,0.0
53432.0,STARLINK-4557,PAYLOAD,2024-04-13 20:58:55,15.08836172,0.0001259,53.218,343.0327,87.652,272.4616,0.00023775,3.498e-05,0.0,0 STARLINK-4557,1 53432U 22097AW  24104.87425300  .00003498  00000-0  23775-3 0  9998,2 53432  53.2180 343.0327 0001259  87.6520 272.4616 15.08836172 93411,6917.892,95.438,540.628,538.886,0.0
53432.0,STARLINK-4557,PAYLOAD,2024-04-14 01:45:04,15.08847596,0.0001416,53.2171,342.1387,107.2672,252.8475,2.853e-05,1.66e-06,0.0,0 STARLINK-4557,1 53432U 22097AW  24105.07296669  .00000166  00000-0  28530-4 0  9999,2 53432  53.2171 342.1387 0001416 107.2672 252.8475 15.08847596 93449,6917.857,95.437,540.702,538.743,0.0
53432.0,STARLINK-4557,PAYLOAD,2024-04-14 20:49:42,15.08838711,0.0001039,53.2168,338.5738,103.3168,256.794,-0.00029864,-5.037e-05,0.0,0 STARLINK-4557,1 53432U 22097AW  24105.86784896 -.00005037  00000-0 -29864-3 0  9994,2 53432  53.2168 338.5738 0001039 103.3168 256.7940 15.08838711 93564,6917.884,95.438,540.468,539.031,0.0
53432.0,STARLINK-4557,PAYLOAD,2024-04-14 22:25:05,15.08824912,0.0001228,53.2167,338.2759,97.8603,262.2529,-0.00048763,-8.037e-05,0.0,0 STARLINK-4557,1 53432U 22097AW  24105.93409582 -.00008037  00000-0 -48763-3 0  9990,2 53432  53.2167 338.2759 0001228  97.8603 262.2529 15.08824912 94052,6917.927,95.439,540.641,538.942,0.0
53432.0,STARLINK-4557,PAYLOAD,2024-04-15 01:35:52,15.08824905,0.0001186,53.2164,337.6805,94.1378,265.975,-0.00043988,-7.279e-05,0.0,0 STARLINK-4557,1 53432U 22097AW  24106.06657693 -.00007279  00000-0 -43988-3 0  9994,2 53432  53.2164 337.6805 0001186  94.1378 265.9750 15.08824905 93592,6917.927,95.439,540.612,538.971,0.0
53432.0,STARLINK-4557,PAYLOAD,2024-04-15 20:40:30,15.08835655,0.0001544,53.2178,334.1146,55.3778,304.7359,4.1657e-05,3.75e-06,0.0,0 STARLINK-4557,1 53432U 22097AW  24106.86146095  .00000375  00000-0  41657-4 0  9991,2 53432  53.2178 334.1146 0001544  55.3778 304.7359 15.08835655 93713,6917.894,95.438,540.827,538.691,0.0
53432.0,STARLINK-4557,PAYLOAD,2024-04-16 01:26:38,15.08852347,0.0001074,53.2174,333.2193,89.5303,270.5812,0.00032819,4.941e-05,0.0,0 STARLINK-4557,1 53432U 22097AW  24107.06017221  .00004941  00000-0  32819-3 0  9994,2 53432  53.2174 333.2193 0001074  89.5303 270.5812 15.08852347 93746,6917.843,95.437,540.451,538.965,0.0
53432.0,STARLINK-4557,PAYLOAD,2024-04-16 22:06:39,15.08882905,0.0001151,53.2167,329.351,73.2026,286.9092,0.0010246,0.00016075,0.0,0 STARLINK-4557,1 53432U 22097AW  24107.92128536  .00016075  00000-0  10246-2 0  9991,2 53432  53.2167 329.3510 0001151  73.2026 286.9092 15.08882905 94357,6917.749,95.435,540.41,538.818,0.0
53432.0,STARLINK-4557,PAYLOAD,2024-04-17 01:17:24,15.08905142,0.000113,53.2167,328.759,91.4491,268.6631,0.0018572,0.00029446,0.0,0 STARLINK-4557,1 53432U 22097AW  24108.05375868  .00029446  00000-0  18572-2 0  9994,2 53432  53.2167 328.7590 0001130  91.4491 268.6631 15.08905142 93896,6917.681,95.433,540.328,538.765,0.0
53432.0,STARLINK-4557,PAYLOAD,2024-04-17 20:22:03,15.08830685,0.0001445,53.216,325.1904,111.6055,248.5091,0.0013701,0.00021579,0.0,0 STARLINK-4557,1 53432U 22097AW  24108.84865400  .00021579  00000-0  13701-2 0  9995,2 53432  53.2160 325.1904 0001445 111.6055 248.5091 15.08830685 94010,6917.909,95.438,540.773,538.774,0.0
53432.0,STARLINK-4557,PAYLOAD,2024-04-17 21:57:26,15.08831533,0.0001329,53.2161,324.8934,91.9323,268.1822,0.0015257,0.00024071,0.0,0 STARLINK-4557,1 53432U 22097AW  24108.91489578  .00024071  00000-0  15257-2 0  9999,2 53432  53.2161 324.8934 0001329  91.9323 268.1822 15.08831533 94506,6917.906,95.438,540.691,538.852,0.0
53432.0,STARLINK-4557,PAYLOAD,2024-04-17 23:32:50,15.0883027,0.000133,53.216,324.5959,93.0509,267.0635,0.0014455,0.00022786,0.0,0 STARLINK-4557,1 53432U 22097AW  24108.98113628  .00022786  00000-0  14455-2 0  9996,2 53432  53.2160 324.5959 0001330  93.0509 267.0635 15.08830270 94518,6917.91,95.438,540.695,538.855,0.0
53432.0,STARLINK-4557,PAYLOAD,2024-04-18 20:12:50,15.08860031,0.0001407,53.2155,320.7316,83.3849,276.7303,0.001398,0.00022043,0.0,0 STARLINK-4557,1 53432U 22097AW  24109.84225524  .00022043  00000-0  13980-2 0  9999,2 53432  53.2155 320.7316 0001407  83.3849 276.7303 15.08860031 94169,6917.819,95.436,540.658,538.711,0.0
53432.0,STARLINK-4557,PAYLOAD,2024-04-18 21:48:13,15.08865457,0.0001495,53.2161,320.4352,78.8226,281.2934,0.0015175,0.00023962,0.0,0 STARLINK-4557,1 53432U 22097AW  24109.90849434  .00023962  00000-0  15175-2 0  9997,2 53432  53.2161 320.4352 0001495  78.8226 281.2934 15.08865457 94650,6917.803,95.436,540.702,538.633,0.0
53432.0,STARLINK-4557,PAYLOAD,2024-04-19 13:42:05,15.08856779,0.0002276,53.2162,317.462,73.1738,286.9504,0.0013026,0.00020513,0.0,0 STARLINK-4557,1 53432U 22097AW  24110.57089635  .00020513  00000-0  13026-2 0  9993,2 53432  53.2162 317.4620 0002276  73.1738 286.9504 15.08856779 94279,6917.829,95.436,541.269,538.12,0.0
